GPS BIIR-2  (PRN 13)    
1 24876U 97035A   23071.59827974  .00000022  00000+0  00000+0 0  9997
2 24876  55.5506 145.2072 0066096  51.8253 308.8347  2.00564178188033
GPS BIIR-4  (PRN 20)    
1 26360U 00025A   23071.49110251 -.00000004  00000+0  00000+0 0  9993
2 26360  54.2845  67.8167 0044210 196.8902 174.6364  2.00552397167354
GPS BIIR-8  (PRN 16)    
1 27663U 03005A   23071.56348740  .00000057  00000+0  00000+0 0  9992
2 27663  55.3435 262.4021 0132414  43.8252 355.9431  2.00576154147380
GPS BIIR-9  (PRN 21)    
1 27704U 03010A   23071.21593288 -.00000072  00000+0  00000+0 0  9993
2 27704  55.0968  12.4794 0249766 313.8263  53.8946  2.00567203146182
GPS BIIR-11 (PRN 19)    
1 28190U 04009A   23071.52852191 -.00000045  00000+0  00000+0 0  9997
2 28190  55.8235 323.4433 0090050 129.8900  42.6982  2.00571293139020
GPS BIIR-13 (PRN 02)    
1 28474U 04045A   23071.28036713 -.00000071  00000+0  00000+0 0  9998
2 28474  55.4216  12.7191 0201384 284.1869 279.0903  2.00562753134500
GPS BIIRM-1 (PRN 17)    
1 28874U 05038A   23071.41747667 -.00000041  00000+0  00000+0 0  9994
2 28874  55.8799 320.8923 0138345 278.7849 200.0137  2.00557362127913
GPS BIIRM-2 (PRN 31)    
1 29486U 06042A   23071.38342406  .00000044  00000+0  00000+0 0  9990
2 29486  54.6934 198.6310 0105217  28.6971 340.2574  2.00504102120472
GPS BIIRM-3 (PRN 12)    
1 29601U 06052A   23070.82030165  .00000053  00000+0  00000+0 0  9994
2 29601  55.3590 261.3814 0087097  76.7866 284.1868  2.00566865119470
GPS BIIRM-4 (PRN 15)    
1 32260U 07047A   23071.12222009  .00000023  00000+0  00000+0 0  9995
2 32260  53.3958 129.4450 0145397  67.4411 294.1704  2.00561369112884
GPS BIIRM-5 (PRN 29)    
1 32384U 07062A   23071.15248278 -.00000042  00000+0  00000+0 0  9990
2 32384  56.0071 321.6995 0021216 141.1453  10.8277  2.00576148111581
GPS BIIRM-6 (PRN 07)    
1 32711U 08012A   23068.54177869  .00000031  00000+0  00000+0 0  9993
2 32711  54.4584 197.6181 0170770 233.2945 125.0970  2.00573447109779
GPS BIIRM-8 (PRN 05)    
1 35752U 09043A   23071.54177116  .00000007  00000+0  00000+0 0  9998
2 35752  55.2877  74.7522 0055785  63.6080 314.8339  2.00568969 99440
GPS BIIF-1  (PRN 25)    
1 36585U 10022A   23071.11117700  .00000057  00000+0  00000+0 0  9993
2 36585  54.6513 256.7044 0109771  58.8787 128.2188  2.00552693 93665
GPS BIIF-2  (PRN 01)    
1 37753U 11036A   23071.22707872 -.00000065  00000+0  00000+0 0  9994
2 37753  56.7045  18.2958 0123275  53.2575 298.5597  2.00566974 85348
GPS BIIF-3  (PRN 24)    
1 38833U 12053A   23071.22201301  .00000038  00000+0  00000+0 0  9999
2 38833  53.5162 192.3913 0135857  50.2651 310.9127  2.00564617 75517
GPS BIIF-4  (PRN 27)    
1 39166U 13023A   23071.08118672 -.00000036  00000+0  00000+0 0  9998
2 39166  55.4990 317.1727 0112941  39.7941 321.0844  2.00564927 71957
GPS BIIF-5  (PRN 30)    
1 39533U 14008A   23071.08260629  .00000042  00000+0  00000+0 0  9996
2 39533  53.6060 197.9332 0063487 210.7809 148.8286  2.00568419 65759
GPS BIIF-6  (PRN 06)    
1 39741U 14026A   23071.35928613 -.00000065  00000+0  00000+0 0  9997
2 39741  56.6610  17.8145 0030771 310.9110  48.8231  2.00569745 64609
GPS BIIF-7  (PRN 09)    
1 40105U 14045A   23070.95389000  .00000026  00000+0  00000+0 0  9996
2 40105  54.7570 136.1189 0022142 115.1981 245.1072  2.00565299 62148
GPS BIIF-8  (PRN 03)    
1 40294U 14068A   23071.32469221  .00000011  00000+0  00000+0 0  9990
2 40294  56.0306  77.3719 0043415  55.9637 304.4805  2.00559918 61287
GPS BIIF-9  (PRN 26)    
1 40534U 15013A   23071.45772041  .00000059  00000+0  00000+0 0  9991
2 40534  53.5504 253.5817 0077881  24.7216 335.6397  2.00565378 57907
GPS BIIF-10 (PRN 08)    
1 40730U 15033A   23071.11911995 -.00000034  00000+0  00000+0 0  9991
2 40730  54.9911 315.8706 0083405  11.7805 348.4692  2.00564253 56067
GPS BIIF-11 (PRN 10)    
1 41019U 15062A   23071.17341451  .00000010  00000+0  00000+0 0  9997
2 41019  56.0163  77.2251 0086236 221.7046 137.6672  2.00562349 53909
GPS BIIF-12 (PRN 32)    
1 41328U 16007A   23071.26078400  .00000024  00000+0  00000+0 0  9996
2 41328  54.9669 136.8426 0069058 232.9315 126.5085  2.00558118 51915
GPS BIII-1  (PRN 04)    
1 43873U 18109A   23071.60020543  .00000022  00000+0  00000+0 0  9999
2 43873  55.1445 139.3070 0023745 192.8540 301.9814  2.00560176 31157
GPS BIII-2  (PRN 18)    
1 44506U 19056A   23071.22865609 -.00000066  00000+0  00000+0 0  9992
2 44506  55.7803  18.4166 0030094 185.6815 301.8383  2.00562286 26145
GPS BIII-3  (PRN 23)    
1 45854U 20041A   23071.30365022  .00000008  00000+0  00000+0 0  9993
2 45854  55.7367  75.6837 0030476 187.3877 296.5829  2.00566361 20112
GPS BIII-4  (PRN 14)    
1 46826U 20078A   23069.89471054  .00000046  00000+0  00000+0 0  9999
2 46826  54.4065 259.2731 0027993 188.3155 334.3342  2.00563878 17551
GPS BIII-5  (PRN 11)    
1 48859U 21054A   23071.58674448 -.00000065  00000+0  00000+0 0  9995
2 48859  55.2934  20.2718 0008697 218.6641 268.8440  2.00558831 12830
GPS BIII-6  (PRN 28)    
1 55268U 23009A   23071.50327146  .00000042  00000+0  00000+0 0  9995
2 55268  55.0968 195.3103 0007131  99.5637   9.4990  2.00567296  1328
